NORAD_CAT_ID,OBJECT_NAME,OBJECT_TYPE,EPOCH,MEAN_MOTION,ECCENTRICITY,INCLINATION,RA_OF_ASC_NODE,ARG_OF_PERICENTER,MEAN_ANOMALY,BSTAR,MEAN_MOTION_DOT,MEAN_MOTION_DDOT,TLE_LINE0,TLE_LINE1,TLE_LINE2,SEMIMAJOR_AXIS,PERIOD,APOGEE,PERIGEE,DECAYED
51863.0,STARLINK-3555,PAYLOAD,2023-10-01 13:44:08,15.08842541,0.0001493,53.2171,45.0116,84.8308,275.2854,3.9614e-05,3.43e-06,0.0,0 STARLINK-3555,1 51863U 22022M   23274.57232117  .00000343  00000-0  39614-4 0  9994,2 51863  53.2171  45.0116 0001493  84.8308 275.2854 15.08842541 88736,6917.873,95.437,540.77,538.705,0.0
51863.0,STARLINK-3555,PAYLOAD,2023-10-01 18:30:17,15.08849765,0.0001595,53.2171,44.1161,107.7432,252.3734,0.00010345,1.359e-05,0.0,0 STARLINK-3555,1 51863U 22022M   23274.77103418  .00001359  00000-0  10345-3 0  9994,2 51863  53.2171  44.1161 0001595 107.7432 252.3734 15.08849765 88763,6917.851,95.437,540.819,538.612,0.0
51863.0,STARLINK-3555,PAYLOAD,2023-10-02 10:24:10,15.08833833,0.0001377,53.2176,41.1466,90.9883,269.1267,-3.9921e-05,-9.23e-06,0.0,0 STARLINK-3555,1 51863U 22022M   23275.43344956 -.00000923  00000-0 -39921-4 0  9992,2 51863  53.2176  41.1466 0001377  90.9883 269.1267 15.08833833 88861,6917.899,95.438,540.717,538.812,0.0
51863.0,STARLINK-3555,PAYLOAD,2023-10-02 15:10:18,15.08840378,0.0001261,53.2178,40.2544,88.9247,271.189,1.1438e-05,-1.06e-06,0.0,0 STARLINK-3555,1 51863U 22022M   23275.63216376 -.00000106  00000-0  11438-4 0  9993,2 51863  53.2178  40.2544 0001261  88.9247 271.1890 15.08840378 88893,6917.879,95.438,540.617,538.872,0.0
51863.0,STARLINK-3555,PAYLOAD,2023-10-03 13:25:42,15.08842202,0.0001365,53.2183,36.0916,89.742,270.3728,9.7196e-05,1.259e-05,0.0,0 STARLINK-3555,1 51863U 22022M   23276.55952250  .00001259  00000-0  97196-4 0  9997,2 51863  53.2183  36.0916 0001365  89.7420 270.3728 15.08842202 89038,6917.874,95.437,540.683,538.794,0.0
51863.0,STARLINK-3555,PAYLOAD,2023-10-03 15:01:05,15.08850889,0.0001327,53.2185,35.792,93.6878,266.4265,8.47e-05,1.061e-05,0.0,0 STARLINK-3555,1 51863U 22022M   23276.62575646  .00001061  00000-0  84700-4 0  9993,2 51863  53.2185  35.7920 0001327  93.6878 266.4265 15.08850889 89043,6917.847,95.437,540.63,538.794,0.0
51863.0,STARLINK-3555,PAYLOAD,2023-10-03 19:47:14,15.08860857,0.0001274,53.2182,34.8997,87.8618,272.252,0.00030503,4.573e-05,0.0,0 STARLINK-3555,1 51863U 22022M   23276.82447172  .00004573  00000-0  30503-3 0  9999,2 51863  53.2182  34.8997 0001274  87.8618 272.2520 15.08860857 89070,6917.817,95.436,540.563,538.8,0.0
51863.0,STARLINK-3555,PAYLOAD,2023-10-04 14:51:50,15.08893703,0.0002481,53.218,31.3333,100.5179,259.6092,0.00079247,0.00012365,0.0,0 STARLINK-3555,1 51863U 22022M   23277.61933417  .00012365  00000-0  79247-3 0  9995,2 51863  53.2180  31.3333 0002481 100.5179 259.6092 15.08893703 89192,6917.716,95.434,541.298,537.865,0.0
51863.0,STARLINK-3555,PAYLOAD,2023-10-04 14:51:52,15.08856993,0.0001149,53.2181,31.3348,88.468,271.6444,0.00031155,4.676e-05,0.0,0 STARLINK-3555,1 51863U 22022M   23277.61935537  .00004676  00000-0  31155-3 0  9992,2 51863  53.2181  31.3348 0001149  88.4680 271.6444 15.08856993 89195,6917.828,95.436,540.488,538.899,0.0
51863.0,STARLINK-3555,PAYLOAD,2023-10-05 17:53:25,15.08853638,0.0001403,53.2188,26.2688,94.4441,265.6711,0.00018328,2.631e-05,0.0,0 STARLINK-3555,1 51863U 22022M   23278.74543703  .00002631  00000-0  18328-3 0  9993,2 51863  53.2188  26.2688 0001403  94.4441 265.6711 15.08853638 89369,6917.839,95.437,540.674,538.733,0.0
51863.0,STARLINK-3555,PAYLOAD,2023-10-06 06:36:32,15.08828166,0.0001545,53.2183,23.9002,116.2625,243.8526,-0.00014255,-2.555e-05,0.0,0 STARLINK-3555,1 51863U 22022M   23279.27537132 -.00002555  00000-0 -14255-3 0  9993,2 51863  53.2183  23.9002 0001545 116.2625 243.8526 15.08828166 89441,6917.917,95.438,540.85,538.713,0.0
51863.0,STARLINK-3555,PAYLOAD,2023-10-06 12:58:04,15.08831761,0.0001736,53.2189,22.7139,81.5649,278.554,-2.0822e-05,-6.19e-06,0.0,0 STARLINK-3555,1 51863U 22022M   23279.54033250 -.00000619  00000-0 -20822-4 0  9992,2 51863  53.2189  22.7139 0001736  81.5649 278.5540 15.08831761 89487,6917.906,95.438,540.972,538.57,0.0
51863.0,STARLINK-3555,PAYLOAD,2023-10-06 14:33:27,15.08846193,0.0001414,53.218,22.4135,94.8604,265.2549,0.00012384,1.684e-05,0.0,0 STARLINK-3555,1 51863U 22022M   23279.60656568  .00001684  00000-0  12384-3 0  9996,2 51863  53.2180  22.4135 0001414  94.8604 265.2549 15.08846193 89490,6917.861,95.437,540.705,538.748,0.0
51863.0,STARLINK-3555,PAYLOAD,2023-10-07 12:48:50,15.08860509,0.0001636,53.2183,18.2517,88.7246,271.3934,0.00052594,8.097e-05,0.0,0 STARLINK-3555,1 51863U 22022M   23280.53392036  .00008097  00000-0  52594-3 0  9999,2 51863  53.2183  18.2517 0001636  88.7246 271.3934 15.08860509 89639,6917.818,95.436,540.814,538.551,0.0
51863.0,STARLINK-3555,PAYLOAD,2023-10-07 14:24:13,15.08863804,0.0001544,53.2178,17.9542,83.4519,276.6649,0.00073047,0.00011364,0.0,0 STARLINK-3555,1 51863U 22022M   23280.60015959  .00011364  00000-0  73047-3 0  9990,2 51863  53.2178  17.9542 0001544  83.4519 276.6649 15.08863804 89643,6917.808,95.436,540.741,538.605,0.0
51863.0,STARLINK-3555,PAYLOAD,2023-10-07 23:56:32,15.08848501,0.0001525,53.2179,16.1696,82.2818,277.8347,0.00029733,4.448e-05,0.0,0 STARLINK-3555,1 51863U 22022M   23280.99760238  .00004448  00000-0  29733-3 0  9997,2 51863  53.2179  16.1696 0001525  82.2818 277.8347 15.08848501 89705,6917.854,95.437,540.774,538.664,0.0
51863.0,STARLINK-3555,PAYLOAD,2023-10-08 06:18:05,15.08836942,0.0001744,53.2181,14.9814,87.1179,273.0012,-0.00015915,-2.82e-05,0.0,0 STARLINK-3555,1 51863U 22022M   23281.26256576 -.00002820  00000-0 -15915-3 0  9994,2 51863  53.2181  14.9814 0001744  87.1179 273.0012 15.08836942 89740,6917.89,95.438,540.961,538.548,0.0
51863.0,STARLINK-3555,PAYLOAD,2023-10-08 12:39:38,15.08838378,0.000151,53.217,13.7912,92.9215,267.195,8.4421e-05,1.056e-05,0.0,0 STARLINK-3555,1 51863U 22022M   23281.52752450  .00001056  00000-0  84421-4 0  9992,2 51863  53.2170  13.7912 0001510  92.9215 267.1950 15.08838378 89784,6917.885,95.438,540.795,538.706,0.0
51863.0,STARLINK-3555,PAYLOAD,2023-10-08 17:25:47,15.08852896,0.0001604,53.2173,12.8971,99.9753,260.142,0.0008983,0.00014042,0.0,0 STARLINK-3555,1 51863U 22022M   23281.72624266  .00014042  00000-0  89830-3 0  9994,2 51863  53.2173  12.8971 0001604  99.9753 260.1420 15.08852896 89810,6917.841,95.437,540.816,538.596,0.0
51863.0,STARLINK-3555,PAYLOAD,2023-10-08 23:47:20,15.08837957,0.0001621,53.2175,11.7087,89.1579,270.9599,0.00070754,0.0001099,0.0,0 STARLINK-3555,1 51863U 22022M   23281.99120877  .00010990  00000-0  70754-3 0  9995,2 51863  53.2175  11.7087 0001621  89.1579 270.9599 15.08837957 89855,6917.887,95.438,540.873,538.63,0.0
51863.0,STARLINK-3555,PAYLOAD,2023-10-09 09:19:39,15.08859,0.000145,53.2183,9.9251,83.2064,276.9093,0.0017957,0.00028421,0.0,0 STARLINK-3555,1 51863U 22022M   23282.38864666  .00028421  00000-0  17957-2 0  9993,2 51863  53.2183   9.9251 0001450  83.2064 276.9093 15.08859000 89915,6917.822,95.436,540.69,538.684,0.0
51863.0,STARLINK-3555,PAYLOAD,2023-10-09 12:30:25,15.08865794,0.0001501,53.2184,9.3303,82.0534,278.0628,0.0021072,0.00033431,0.0,0 STARLINK-3555,1 51863U 22022M   23282.52112490  .00033431  00000-0  21072-2 0  9990,2 51863  53.2184   9.3303 0001501  82.0534 278.0628 15.08865794 89930,6917.802,95.436,540.705,538.628,0.0
51863.0,STARLINK-3555,PAYLOAD,2023-10-09 17:16:34,15.08882892,0.0001556,53.2184,8.4379,79.9731,280.1437,0.0023435,0.0003725,0.0,0 STARLINK-3555,1 51863U 22022M   23282.71983996  .00037250  00000-0  23435-2 0  9996,2 51863  53.2184   8.4379 0001556  79.9731 280.1437 15.08882892 89960,6917.749,95.435,540.691,538.538,0.0
51863.0,STARLINK-3555,PAYLOAD,2023-10-10 10:45:48,15.08853835,0.000139,53.2184,5.1658,93.4931,266.622,0.0016814,0.00026583,0.0,0 STARLINK-3555,1 51863U 22022M   23283.44848252  .00026583  00000-0  16814-2 0  9992,2 51863  53.2184   5.1658 0001390  93.4931 266.6220 15.08853835 90071,6917.838,95.437,540.665,538.742,0.0
51863.0,STARLINK-3555,PAYLOAD,2023-10-10 12:21:12,15.08854215,0.0001427,53.2188,4.8683,89.691,270.4246,0.0018323,0.00029005,0.0,0 STARLINK-3555,1 51863U 22022M   23283.51472273  .00029005  00000-0  18323-2 0  9995,2 51863  53.2188   4.8683 0001427  89.6910 270.4246 15.08854215 90089,6917.837,95.437,540.689,538.715,0.0
51863.0,STARLINK-3555,PAYLOAD,2023-10-10 17:07:21,15.08867588,0.0001475,53.219,3.9766,90.2266,269.8895,0.0020538,0.00032574,0.0,0 STARLINK-3555,1 51863U 22022M   23283.71344004  .00032574  00000-0  20538-2 0  9993,2 51863  53.2190   3.9766 0001475  90.2266 269.8895 15.08867588 90112,6917.796,95.436,540.681,538.641,0.0
51863.0,STARLINK-3555,PAYLOAD,2023-10-11 10:36:36,15.08833456,0.0001428,53.2189,0.7066,102.5137,257.6015,0.0013229,0.00020825,0.0,0 STARLINK-3555,1 51863U 22022M   23284.44209204  .00020825  00000-0  13229-2 0  9991,2 51863  53.2189   0.7066 0001428 102.5137 257.6015 15.08833456 90228,6917.9,95.438,540.753,538.778,0.0
51863.0,STARLINK-3555,PAYLOAD,2023-10-11 12:12:00,15.08838142,0.0001342,53.2187,0.4092,71.6416,288.4722,0.001683,0.00026597,0.0,0 STARLINK-3555,1 51863U 22022M   23284.50833369  .00026597  00000-0  16830-2 0  9996,2 51863  53.2187   0.4092 0001342  71.6416 288.4722 15.08838142 90238,6917.886,95.438,540.679,538.823,0.0
51863.0,STARLINK-3555,PAYLOAD,2023-10-12 04:05:51,15.08831197,0.0001678,53.2191,357.4352,84.1364,275.9819,0.0022032,0.00034942,0.0,0 STARLINK-3555,1 51863U 22022M   23285.17074011  .00034942  00000-0  22032-2 0  9995,2 51863  53.2191 357.4352 0001678  84.1364 275.9819 15.08831197 90332,6917.907,95.438,540.933,538.611,0.0
51863.0,STARLINK-3555,PAYLOAD,2023-10-12 12:02:47,15.08864653,0.0001274,53.2183,355.9502,84.4159,275.6978,0.001931,0.00030598,0.0,0 STARLINK-3555,1 51863U 22022M   23285.50193364  .00030598  00000-0  19310-2 0  9993,2 51863  53.2183 355.9502 0001274  84.4159 275.6978 15.08864653 90381,6917.805,95.436,540.551,538.789,0.0
